{"fetched_at":"2026-03-29T16:36:15Z","count":15609,"tles":[{"name":"STARLINK-35324","line1":"1 65838U 25221R   26087.93073186  .00022259  00000+0  76104-3 0  9992","line2":"2 65838  53.1639 359.3675 0001023 110.1205 249.9906 15.30214979 27675","category":"Starlink"}]}