{
  "norad_id": 65838,
  "name": "STARLINK-35324",
  "history": [
    {
      "epoch": "2026-03-28T22:20:15.232704Z",
      "apogee_km": 475.8714385315543,
      "perigee_km": 474.46925184872816,
      "latitude_deg": 6.983736948383728e-06,
      "longitude_deg": -162.04007151815068,
      "height_km": 476.3104303996643,
      "semi_major_axis_km": 6853.307345190141,
      "eccentricity": 0.0001023,
      "inclination_deg": 53.1639,
      "raan_deg": 359.3675,
      "arg_perigee_deg": 110.1205,
      "mean_anomaly_deg": 249.9906,
      "mean_motion_rev_day": 15.30214979
    }
  ]
}